{
      "43479": [
            "1 43479U 18047D   21113.35188919  .00000095  00000-0  26829-4 0  9994",
            "2 43479  86.3977 154.4118 0002101  98.9065 261.2369 14.34218624152916"
      ],
      "43480": [
            "1 43480U 18047E   21114.05589937  .00000102  00000-0  29410-4 0  9997",
            "2 43480  86.3975 154.0904 0002548  96.2848 263.8638 14.34220103153003"
      ],
      "43481": [
            "1 43481U 18047F   21113.36455659  .00000059  00000-0  13886-4 0  9995",
            "2 43481  86.3979 154.4210 0002263  85.2179 274.9275 14.34215436152890"
      ],
      "43482": [
            "1 43482U 18047G   21114.04898256  .00000118  00000-0  29192-4 0  9999",
            "2 43482  86.4499 154.1677 0002233  83.3785 276.7670 14.43284157153944"
      ],
      "43569": [
            "1 43569U 18061A   21113.38015900  .00000078  00000-0  20794-4 0  9998",
            "2 43569  86.3929 122.8011 0002334  97.2488 262.8973 14.34220659143798"
      ],
      "43570": [
            "1 43570U 18061B   21113.75437347  .00000079  00000-0  21110-4 0  9998",
            "2 43570  86.3928 122.6211 0002097  85.3246 274.8189 14.34219266143878"
      ],
      "43571": [
            "1 43571U 18061C   21113.72266953  .00000079  00000-0  21122-4 0  9992",
            "2 43571  86.3927 122.6421 0002055  93.3465 266.7966 14.34217931143833"
      ],
      "43572": [
            "1 43572U 18061D   21113.74803967  .00000077  00000-0  20552-4 0  9991",
            "2 43572  86.3930 122.6432 0002014  92.0576 268.0850 14.34216401143865"
      ],
      "43573": [
            "1 43573U 18061E   21113.43090819  .00000083  00000-0  22579-4 0  9990",
            "2 43573  86.3925 122.7352 0002532  79.4599 280.6882 14.34218995143787"
      ],
      "43574": [
            "1 43574U 18061F   21113.76072244  .00000080  00000-0  21542-4 0  9995",
            "2 43574  86.3929 122.6413 0002361  96.7044 263.4420 14.34218518143885"
      ],
      "43575": [
            "1 43575U 18061G   21113.74168986  .00000076  00000-0  20017-4 0  9994",
            "2 43575  86.3926 122.6217 0001746  93.6640 266.4755 14.34219066143859"
      ],
      "43576": [
            "1 43576U 18061H   21113.29771862  .00000074  00000-0  19413-4 0  9994",
            "2 43576  86.3927 122.8125 0002062  82.9346 277.2084 14.34216582143784"
      ],
      "43577": [
            "1 43577U 18061J   21113.76706568  .00000078  00000-0  20815-4 0  9990",
            "2 43577  86.3928 122.6279 0002207  96.0014 264.1433 14.34216568143892"
      ],
      "43578": [
            "1 43578U 18061K   21113.73535851  .00000076  00000-0  19976-4 0  9997",
            "2 43578  86.3926 122.6175 0002299  94.8135 265.3323 14.34217306143855"
      ],
      "43922": [
            "1 43922U 19002A   21113.59531734  .00000075  00000-0  19759-4 0  9994",
            "2 43922  86.3985  59.4911 0002139 112.7578 247.3844 14.34217947119449"
      ],
      "43923": [
            "1 43923U 19002B   21114.10421440  .00000188  00000-0  25871-4 0  9992",
            "2 43923  86.6121  59.3100 0002558  90.0534 270.0977 14.72261388122634"
      ],
      "43924": [
            "1 43924U 19002C   21114.07733851  .00000082  00000-0  22186-4 0  9990",
            "2 43924  86.3987  59.3138 0002274  92.8323 267.3133 14.34221025119499"
      ],
      "43925": [
            "1 43925U 19002D   21114.13443737  .00000083  00000-0  22653-4 0  9999",
            "2 43925  86.3985  59.2554 0002190  90.9342 269.2104 14.34216801119491"
      ],
      "43926": [
            "1 43926U 19002E   21113.67286632  .00000096  00000-0  24963-4 0  9997",
            "2 43926  86.4191  91.0596 0007012  63.1486 297.0429 14.38612836119863"
      ],
      "43927": [
            "1 43927U 19002F   21114.12808834  .00000086  00000-0  23520-4 0  9990",
            "2 43927  86.3984  59.2601 0002194  93.3345 266.8102 14.34216964119490"
      ],
      "43928": [
            "1 43928U 19002G   21114.09808076  .00000180  00000-0  24650-4 0  9995",
            "2 43928  86.6104  59.1433 0001764  84.4928 275.6490 14.72248443122626"
      ],
      "43929": [
            "1 43929U 19002H   21113.34161393  .00000082  00000-0  22163-4 0  9995",
            "2 43929  86.3993  59.6862 0002292  92.5061 267.6397 14.34217577119373"
      ],
      "43930": [
            "1 43930U 19002J   21113.36272418  .00000193  00000-0  26628-4 0  9993",
            "2 43930  86.6119  59.6263 0002283  90.4177 269.7301 14.72261339122535"
      ],
      "43931": [
            "1 43931U 19002K   21113.40502742  .00000089  00000-0  24667-4 0  9990",
            "2 43931  86.3984  59.5681 0002177 106.8008 253.3426 14.34219668119385"
      ]
}